IRIDIUM 144             
1 43249U 18030A   24080.56680066  .00000052  00000+0  11415-4 0  9997
2 43249  86.3911 272.5146 0002154  90.1020 270.0422 14.34217923312800
IRIDIUM 149             
1 43250U 18030B   24080.57314534  .00000026  00000+0  23725-5 0  9993
2 43250  86.3909 272.4880 0002137  86.5003 273.6437 14.34217788312820
IRIDIUM 157             
1 43251U 18030C   24080.59216883  .00000046  00000+0  94653-5 0  9994
2 43251  86.3912 272.5152 0001806  92.9882 267.1521 14.34217320312808
IRIDIUM 140             
1 43252U 18030D   24080.54142938  .00000056  00000+0  12945-4 0  9993
2 43252  86.3911 272.5509 0002440  91.4544 268.6931 14.34217717312854
IRIDIUM 145             
1 43253U 18030E   24080.59851163  .00000125  00000+0  37517-4 0  9995
2 43253  86.3910 272.5010 0002329  84.8547 275.2915 14.34218184312794
IRIDIUM 146             
1 43254U 18030F   24080.57948431  .00000020  00000+0  12390-6 0  9997
2 43254  86.3909 272.5242 0002214  84.5810 275.5638 14.34217854312803
IRIDIUM 148             
1 43255U 18030G   24080.54777229  .00000089  00000+0  24596-4 0  9994
2 43255  86.3911 272.5680 0001983  79.9812 280.1607 14.34218259312836
IRIDIUM 142             
1 43256U 18030H   24080.58582691  .00000047  00000+0  96805-5 0  9993
2 43256  86.3908 272.4709 0002188  83.7610 276.3835 14.34217734312805
